STARLINK-4320           
1 53059U 22077S   26068.48197990 -.00000435  00000+0 -29317-4 0  9998
2 53059  97.6005 250.0100 0000436 138.2280 221.8978 15.01260038200887
EINSTEIN PROBE          
1 58753U 24007A   26068.60284448  .00004372  00000+0  31977-3 0  9994
2 58753  28.9980 140.9090 0009522 248.3814 111.5770 15.01336938118581
